ATLAS CENTAUR 2         
1 00694U 63047A   26201.21401474  .00000489  00000+0  45789-4 0  9990
2 00694  30.3522 174.6854 0545668 168.7879 192.5443 14.12568567150370
THOR AGENA D R/B        
1 00733U 64002A   26201.50737815  .00000078  00000+0  45150-4 0  9995
2 00733  99.1155 222.0366 0032010 230.6168 129.2179 14.34077526257338
SL-3 R/B                
1 00877U 64053B   26201.65583705  .00000030  00000+0  30195-4 0  9994
2 00877  65.0779 301.3781 0080064 250.5933 108.6501 14.61441284286222
SL-8 R/B                
1 02802U 67045B   26201.85509858  .00000155  00000+0  50542-4 0  9993
2 02802  74.0110  99.3784 0063080  74.4420 286.3690 14.45697358108268
SL-8 R/B                
1 03230U 68040B   26201.71035769  .00001604  00000+0  11863-3 0  9997
2 03230  74.0291  41.7218 0024778 188.4652 171.6123 15.03956400110004
OAO 2                   
1 03597U 68110A   26201.16742257  .00000076  00000+0  25582-4 0  9993
2 03597  34.9924 245.5311 0005463 186.0860 173.9765 14.47362720 38303
ISIS 1                  
1 03669U 69009A   26201.82815240  .00000090  00000+0  55096-4 0  9996
2 03669  88.4455 140.7063 1707229 180.2843 179.7387 11.30437141363576
SERT 2                  
1 04327U 70009A   26201.83268508 -.00000009  00000+0  44833-4 0  9998
2 04327  99.2839 137.7405 0004788 174.3389 246.1070 13.58741294797970
SL-3 R/B                
1 05118U 71028B   26201.80570566  .00041772  00000+0  30560-3 0  9998
2 05118  81.2297 246.1693 0014806 162.8868 197.2894 15.72861292  9524
ASTEX 1                 
1 05560U 71089A   26201.86712485  .00000316  00000+0  80279-4 0  9992
2 05560  92.7011 194.7036 0015542   3.8964 356.2360 14.50874471881615
SL-8 R/B                
1 05730U 71119B   26201.37286781  .00004592  00000+0  23577-3 0  9993
2 05730  73.8870 287.2446 0542521 226.5264 128.9564 14.39777314674579
OAO 3 (COPERNICUS)      
1 06153U 72065A   26201.90107947  .00000142  00000+0  33409-4 0  9992
2 06153  35.0052 258.3054 0006455 175.7080 350.6615 14.60076568865678
ATLAS CENTAUR R/B       
1 06155U 72065B   26201.31193940  .00000340  00000+0  49532-4 0  9991
2 06155  35.0004 248.3416 0033102  46.0564 314.2860 14.77969279860899
SL-8 R/B                
1 08459U 75112B   26201.84541086  .00000161  00000+0  61532-4 0  9997
2 08459  74.0611 133.9545 0015976 195.5628 164.5038 14.38260003651018
SL-3 R/B                
1 10114U 77057B   26201.82622603  .00007218  00000+0  13757-3 0  9996
2 10114  97.5861  20.0154 0007744 150.9697 209.1985 15.48482458688911
SEASAT 1                
1 10967U 78064A   26201.50925106 -.00000014  00000+0  34712-4 0  9993
2 10967 108.0180  44.2410 0001045 264.0938  96.0089 14.46261516525718
SL-14 R/B               
1 11267U 79011B   26201.84190931  .00000315  00000+0  28464-4 0  9997
2 11267  82.5261 330.2148 0015276 337.8449  22.2108 14.92041133548632
SL-8 R/B                
1 11574U 79089B   26201.42669436  .00000040  00000+0  20052-4 0  9998
2 11574  74.0669 205.3241 0016208 339.1008  20.9484 14.42415456455243
SL-14 R/B               
1 11672U 80005B   26201.40593007  .00000305  00000+0  28156-4 0  9992
2 11672  82.5141 181.3287 0017335  81.7133 278.6051 14.91052730496260
SL-8 R/B                
1 12139U 81003B   26201.38143838  .00017038  00000+0  40331-3 0  9999
2 12139  82.9381 166.9108 0249597  75.6548 287.2253 15.15212290334749
SL-3 R/B                
1 12465U 81046B   26201.87727260  .00008420  00000+0  17801-3 0  9990
2 12465  81.2311 129.4649 0015650 275.2910  84.6548 15.44860376458976
SL-3 R/B                
1 12904U 81103B   26201.83702586  .00002413  00000+0  10283-3 0  9995
2 12904  81.1569  57.0899 0012443 192.1396 167.9538 15.22513124993489
SL-3 R/B                
1 13068U 82013B   26201.86375171  .00002979  00000+0  12476-3 0  9990
2 13068  81.1745   4.5190 0022928  90.2925 270.0935 15.22986666424619
SL-3 R/B                
1 13154U 82039B   26201.81596485  .00001620  00000+0  95465-4 0  9994
2 13154  81.1514  62.2388 0028903 239.3984 120.4390 15.10716206401738
SL-3 R/B                
1 13403U 82079B   26201.82161899  .00003573  00000+0  13653-3 0  9990
2 13403  81.1450  35.6910 0024864  75.3896 285.0092 15.26046107397993
SL-14 R/B               
1 13553U 82092B   26201.76108028  .00000242  00000+0  24394-4 0  9994
2 13553  82.5673  16.8810 0019351 216.1476 154.3032 14.86767047348700
SL-3 R/B                
1 13819U 83010B   26201.70077878  .00008904  00000+0  15783-3 0  9996
2 13819  81.1003 198.6620 0012937 302.4519  57.5476 15.49999828378528
SL-3 R/B                
1 14208U 83075B   26201.83991907  .00007244  00000+0  17608-3 0  9996
2 14208  97.6114 211.7338 0022416 111.0097 249.3549 15.41049574350648
COSMOS 1536             
1 14699U 84013A   26201.81828911  .00004302  00000+0  16870-3 0  9997
2 14699  82.5461 335.3392 0014475 168.7028 191.4538 15.25386703292901
SL-14 R/B               
1 14820U 84027B   26201.88150781  .00000239  00000+0  24466-4 0  9994
2 14820  82.5430 120.1220 0016391 250.8816 109.0626 14.86081443267410
SL-8 R/B                
1 15483U 85006B   26201.83835321  .00000170  00000+0  65011-4 0  9998
2 15483  74.0457  16.1352 0019233 258.4111 206.3549 14.37847344173160
