OBJECT_NAME,OBJECT_ID,EPOCH,MEAN_MOTION,ECCENTRICITY,INCLINATION,RA_OF_ASC_NODE,ARG_OF_PERICENTER,MEAN_ANOMALY,EPHEMERIS_TYPE,CLASSIFICATION_TYPE,NORAD_CAT_ID,ELEMENT_SET_NO,REV_AT_EPOCH,BSTAR,MEAN_MOTION_DOT,MEAN_MOTION_DDOT
ATLAS CENTAUR 2,1963-047A,2026-07-20T05:08:10.873536,14.12568567,.05456682,30.3522,174.6854,168.7879,192.5443,0,U,694,999,15037,.45789032E-4,.489E-5,0
THOR AGENA D R/B,1964-002A,2026-07-20T12:10:37.472160,14.34077526,.003201,99.1155,222.0366,230.6168,129.2179,0,U,733,999,25733,.4515E-4,.78E-6,0
SL-3 R/B,1964-053B,2026-07-20T15:44:24.321120,14.61441284,.0080064,65.0779,301.3781,250.5933,108.6501,0,U,877,999,28622,.30195E-4,.3E-6,0
SL-8 R/B,1967-045B,2026-07-20T20:31:20.517312,14.45697358,.006308,74.0110,99.3784,74.4420,286.3690,0,U,2802,999,10826,.50542E-4,.155E-5,0
SL-8 R/B,1968-040B,2026-07-20T17:02:54.904416,15.03956400,.0024778,74.0291,41.7218,188.4652,171.6123,0,U,3230,999,11000,.11863E-3,.1604E-4,0
OAO 2,1968-110A,2026-07-20T04:01:05.310048,14.47362720,.00054637,34.9924,245.5311,186.0860,173.9765,0,U,3597,999,3830,.25582038E-4,.76E-6,0
ISIS 1,1969-009A,2026-07-20T19:52:32.367360,11.30437141,.1707229,88.4455,140.7063,180.2843,179.7387,0,U,3669,999,36357,.55096E-4,.9E-6,0
SERT 2,1970-009A,2026-07-20T19:59:03.990912,13.58741294,.0004788,99.2839,137.7405,174.3389,246.1070,0,U,4327,999,79797,.44833E-4,-.9E-7,0
SL-3 R/B,1971-028B,2026-07-20T19:20:12.969024,15.72861292,.0014806,81.2297,246.1693,162.8868,197.2894,0,U,5118,999,952,.3056E-3,.41772E-3,0
ASTEX 1,1971-089A,2026-07-20T20:48:39.587040,14.50874471,.0015542,92.7011,194.7036,3.8964,356.2360,0,U,5560,999,88161,.80279E-4,.316E-5,0
SL-8 R/B,1971-119B,2026-07-20T08:56:55.778784,14.39777314,.0542521,73.8870,287.2446,226.5264,128.9564,0,U,5730,999,67457,.23577E-3,.4592E-4,0
OAO 3 (COPERNICUS),1972-065A,2026-07-20T21:37:33.266208,14.60076568,.0006455,35.0052,258.3054,175.7080,350.6615,0,U,6153,999,86567,.33409E-4,.142E-5,0
ATLAS CENTAUR R/B,1972-065B,2026-07-20T07:29:11.564160,14.77969279,.00331025,35.0004,248.3416,46.0564,314.2860,0,U,6155,999,86089,.49531765E-4,.34E-5,0
SL-8 R/B,1975-112B,2026-07-20T20:17:23.498304,14.38260003,.0015976,74.0611,133.9545,195.5628,164.5038,0,U,8459,999,65101,.61532E-4,.161E-5,0
SL-3 R/B,1977-057B,2026-07-20T19:49:45.928992,15.48482458,.0007744,97.5861,20.0154,150.9697,209.1985,0,U,10114,999,68891,.13757E-3,.7218E-4,0
SEASAT 1,1978-064A,2026-07-20T12:13:19.291584,14.46261516,.00010453,108.0180,44.2410,264.0938,96.0089,0,U,10967,999,52571,.3471238E-4,-.14E-6,0
SL-14 R/B,1979-011B,2026-07-20T20:12:20.964384,14.92041133,.0015276,82.5261,330.2148,337.8449,22.2108,0,U,11267,999,54863,.28464E-4,.315E-5,0
SL-8 R/B,1979-089B,2026-07-20T10:14:26.392704,14.42415456,.00162083,74.0669,205.3241,339.1008,20.9484,0,U,11574,999,45524,.20051935E-4,.4E-6,0
SL-14 R/B,1980-005B,2026-07-20T09:44:32.358048,14.91052730,.0017335,82.5141,181.3287,81.7133,278.6051,0,U,11672,999,49626,.28156E-4,.305E-5,0
SL-8 R/B,1981-003B,2026-07-20T09:09:16.276032,15.15212290,.0249597,82.9381,166.9108,75.6548,287.2253,0,U,12139,999,33474,.40331E-3,.17038E-3,0
SL-3 R/B,1981-046B,2026-07-20T21:03:16.352640,15.44860376,.001565,81.2311,129.4649,275.2910,84.6548,0,U,12465,999,45897,.17801E-3,.842E-4,0
SL-3 R/B,1981-103B,2026-07-20T20:05:19.034304,15.22513124,.0012443,81.1569,57.0899,192.1396,167.9538,0,U,12904,999,99348,.10283E-3,.2413E-4,0
SL-3 R/B,1982-013B,2026-07-20T20:43:48.147744,15.22986666,.0022928,81.1745,4.5190,90.2925,270.0935,0,U,13068,999,42461,.12476E-3,.2979E-4,0
SL-3 R/B,1982-039B,2026-07-20T19:34:59.363040,15.10716206,.0028903,81.1514,62.2388,239.3984,120.4390,0,U,13154,999,40173,.95465E-4,.162E-4,0
SL-3 R/B,1982-079B,2026-07-20T19:43:07.880736,15.26046107,.0024864,81.1450,35.6910,75.3896,285.0092,0,U,13403,999,39799,.13653E-3,.3573E-4,0
SL-14 R/B,1982-092B,2026-07-20T18:15:57.336192,14.86767047,.0019351,82.5673,16.8810,216.1476,154.3032,0,U,13553,999,34870,.24394E-4,.242E-5,0
SL-3 R/B,1983-010B,2026-07-20T16:49:07.286592,15.49999828,.0012937,81.1003,198.6620,302.4519,57.5476,0,U,13819,999,37852,.15783E-3,.8904E-4,0
SL-3 R/B,1983-075B,2026-07-20T20:09:29.007648,15.41049574,.0022416,97.6114,211.7338,111.0097,249.3549,0,U,14208,999,35064,.17608E-3,.7244E-4,0
COSMOS 1536,1984-013A,2026-07-20T19:38:20.179104,15.25386703,.0014475,82.5461,335.3392,168.7028,191.4538,0,U,14699,999,29290,.1687E-3,.4302E-4,0
SL-14 R/B,1984-027B,2026-07-20T21:09:22.274784,14.86081443,.0016391,82.5430,120.1220,250.8816,109.0626,0,U,14820,999,26741,.24466E-4,.239E-5,0
SL-8 R/B,1985-006B,2026-07-20T20:07:13.717344,14.37847344,.0019233,74.0457,16.1352,258.4111,206.3549,0,U,15483,999,17316,.65011E-4,.17E-5,0
